[
    {
        "Altitude(m)": 705677.1873796438,
        "Argument of Periapsis(deg)": 0.0,
        "Eccentricity": 0.0,
        "Inclination(deg)": 45.0,
        "Latitude(deg)": -11.613262183173221,
        "Longitude(deg)": -173.1744769883349,
        "Mean Anomaly(deg)": 196.36359999999996,
        "RAAN(deg)": 95.0,
        "Satellite Name": "Constellation 1 430",
        "Satellite Number": 430,
        "Semi-Major Axis(m)": 7083131.272910544,
        "Time(s)": 0
    },
    {
        "Altitude(m)": 705687.8518280509,
        "Argument of Periapsis(deg)": 5.994800624540561e-05,
        "Eccentricity": 0.0,
        "Inclination(deg)": 45.0,
        "Latitude(deg)": -11.655522503264532,
        "Longitude(deg)": -173.1339477638913,
        "Mean Anomaly(deg)": 196.4243011402498,
        "RAAN(deg)": 94.99994341083443,
        "Satellite Name": "Constellation 1 430",
        "Satellite Number": 430,
        "Semi-Major Axis(m)": 7083131.272910544,
        "Time(s)": 1
    },
    {
        "Altitude(m)": 705698.5318466665,
        "Argument of Periapsis(deg)": 0.00011989601249081122,
        "Eccentricity": 0.0,
        "Inclination(deg)": 45.0,
        "Latitude(deg)": -11.697775682962863,
        "Longitude(deg)": -173.09340514772217,
        "Mean Anomaly(deg)": 196.4850022804998,
        "RAAN(deg)": 94.99988682166885,
        "Satellite Name": "Constellation 1 430",
        "Satellite Number": 430,
        "Semi-Major Axis(m)": 7083131.272910544,
        "Time(s)": 2
    },
    {
        "Altitude(m)": 705709.2274053475,
        "Argument of Periapsis(deg)": 0.00017984401873621686,
        "Eccentricity": 0.0,
        "Inclination(deg)": 45.0,
        "Latitude(deg)": -11.740021693975736,
        "Longitude(deg)": -173.0528490878423,
        "Mean Anomaly(deg)": 196.54570342074965,
        "RAAN(deg)": 94.9998302325033,
        "Satellite Name": "Constellation 1 430",
        "Satellite Number": 430,
        "Semi-Major Axis(m)": 7083131.272910544,
        "Time(s)": 3
    },
    {
        "Altitude(m)": 705719.9384738876,
        "Argument of Periapsis(deg)": 0.00023979202498162244,
        "Eccentricity": 0.0,
        "Inclination(deg)": 45.0,
        "Latitude(deg)": -11.782260507985422,
        "Longitude(deg)": -173.0122795322405,
        "Mean Anomaly(deg)": 196.6064045609996,
        "RAAN(deg)": 94.99977364333773,
        "Satellite Name": "Constellation 1 430",
        "Satellite Number": 430,
        "Semi-Major Axis(m)": 7083131.272910544,
        "Time(s)": 4
    },
    {
        "Altitude(m)": 705730.6650219995,
        "Argument of Periapsis(deg)": 0.00029974003122702807,
        "Eccentricity": 0.0,
        "Inclination(deg)": 45.0,
        "Latitude(deg)": -11.824492096648191,
        "Longitude(deg)": -172.97169642888008,
        "Mean Anomaly(deg)": 196.66710570124948,
        "RAAN(deg)": 94.99971705417215,
        "Satellite Name": "Constellation 1 430",
        "Satellite Number": 430,
        "Semi-Major Axis(m)": 7083131.272910544,
        "Time(s)": 5
    },
    {
        "Altitude(m)": 705741.4070193174,
        "Argument of Periapsis(deg)": 0.00035968803747243373,
        "Eccentricity": 0.0,
        "Inclination(deg)": 45.0,
        "Latitude(deg)": -11.866716431594677,
        "Longitude(deg)": -172.93109972569832,
        "Mean Anomaly(deg)": 196.72780684149942,
        "RAAN(deg)": 94.99966046500658,
        "Satellite Name": "Constellation 1 430",
        "Satellite Number": 430,
        "Semi-Major Axis(m)": 7083131.272910544,
        "Time(s)": 6
    },
    {
        "Altitude(m)": 705752.1644354059,
        "Argument of Periapsis(deg)": 0.00041963604371783933,
        "Eccentricity": 0.0,
        "Inclination(deg)": 45.0,
        "Latitude(deg)": -11.908933484429152,
        "Longitude(deg)": -172.89048953870363,
        "Mean Anomaly(deg)": 196.7885079817493,
        "RAAN(deg)": 94.99960387584103,
        "Satellite Name": "Constellation 1 430",
        "Satellite Number": 430,
        "Semi-Major Axis(m)": 7083131.272910544,
        "Time(s)": 7
    },
    {
        "Altitude(m)": 705762.937239747,
        "Argument of Periapsis(deg)": 0.0004795840499632449,
        "Eccentricity": 0.0,
        "Inclination(deg)": 45.0,
        "Latitude(deg)": -11.951143226730863,
        "Longitude(deg)": -172.84986547958746,
        "Mean Anomaly(deg)": 196.8492091219992,
        "RAAN(deg)": 94.99954728667545,
        "Satellite Name": "Constellation 1 430",
        "Satellite Number": 430,
        "Semi-Major Axis(m)": 7083131.272910544,
        "Time(s)": 8
    },
    {
        "Altitude(m)": 705773.7254017574,
        "Argument of Periapsis(deg)": 0.0005395320562086505,
        "Eccentricity": 0.0,
        "Inclination(deg)": 45.0,
        "Latitude(deg)": -11.993345630051996,
        "Longitude(deg)": -172.8092276643062,
        "Mean Anomaly(deg)": 196.90991026224904,
        "RAAN(deg)": 94.99949069750988,
        "Satellite Name": "Constellation 1 430",
        "Satellite Number": 430,
        "Semi-Major Axis(m)": 7083131.272910544,
        "Time(s)": 9
    },
    {
        "Altitude(m)": 705784.5288907724,
        "Argument of Periapsis(deg)": 0.0005994800624540561,
        "Eccentricity": 0.0,
        "Inclination(deg)": 45.0,
        "Latitude(deg)": -12.035540665918926,
        "Longitude(deg)": -172.7685760406929,
        "Mean Anomaly(deg)": 196.970611402499,
        "RAAN(deg)": 94.9994341083443,
        "Satellite Name": "Constellation 1 430",
        "Satellite Number": 430,
        "Semi-Major Axis(m)": 7083131.272910544,
        "Time(s)": 10
    },
    {
        "Altitude(m)": 705795.3476760506,
        "Argument of Periapsis(deg)": 0.0006594280686994618,
        "Eccentricity": 0.0,
        "Inclination(deg)": 45.0,
        "Latitude(deg)": -12.077728305831359,
        "Longitude(deg)": -172.7279105565549,
        "Mean Anomaly(deg)": 197.0313125427489,
        "RAAN(deg)": 94.99937751917875,
        "Satellite Name": "Constellation 1 430",
        "Satellite Number": 430,
        "Semi-Major Axis(m)": 7083131.272910544,
        "Time(s)": 11
    },
    {
        "Altitude(m)": 705806.1817267855,
        "Argument of Periapsis(deg)": 0.0007193760749448675,
        "Eccentricity": 0.0,
        "Inclination(deg)": 45.0,
        "Latitude(deg)": -12.119908521262932,
        "Longitude(deg)": -172.68723115967282,
        "Mean Anomaly(deg)": 197.09201368299875,
        "RAAN(deg)": 94.99932093001318,
        "Satellite Name": "Constellation 1 430",
        "Satellite Number": 430,
        "Semi-Major Axis(m)": 7083131.272910544,
        "Time(s)": 12
    },
    {
        "Altitude(m)": 705817.0310120828,
        "Argument of Periapsis(deg)": 0.000779324081190273,
        "Eccentricity": 0.0,
        "Inclination(deg)": 45.0,
        "Latitude(deg)": -12.16208128366047,
        "Longitude(deg)": -172.64653779780147,
        "Mean Anomaly(deg)": 197.15271482324866,
        "RAAN(deg)": 94.9992643408476,
        "Satellite Name": "Constellation 1 430",
        "Satellite Number": 430,
        "Semi-Major Axis(m)": 7083131.272910544,
        "Time(s)": 13
    },
    {
        "Altitude(m)": 705827.8955009879,
        "Argument of Periapsis(deg)": 0.0008392720874356787,
        "Eccentricity": 0.0,
        "Inclination(deg)": 45.0,
        "Latitude(deg)": -12.204246564444354,
        "Longitude(deg)": -172.6058304186687,
        "Mean Anomaly(deg)": 197.2134159634986,
        "RAAN(deg)": 94.99920775168204,
        "Satellite Name": "Constellation 1 430",
        "Satellite Number": 430,
        "Semi-Major Axis(m)": 7083131.272910544,
        "Time(s)": 14
    },
    {
        "Altitude(m)": 705838.7751624555,
        "Argument of Periapsis(deg)": 0.0008992200936810842,
        "Eccentricity": 0.0,
        "Inclination(deg)": 45.0,
        "Latitude(deg)": -12.24640433500778,
        "Longitude(deg)": -172.5651091380734,
        "Mean Anomaly(deg)": 197.27411710374847,
        "RAAN(deg)": 94.99915116251645,
        "Satellite Name": "Constellation 1 430",
        "Satellite Number": 430,
        "Semi-Major Axis(m)": 7083131.272910544,
        "Time(s)": 15
    },
    {
        "Altitude(m)": 705849.6699653835,
        "Argument of Periapsis(deg)": 0.0009591680999264898,
        "Eccentricity": 0.0,
        "Inclination(deg)": 45.0,
        "Latitude(deg)": -12.288554566718012,
        "Longitude(deg)": -172.52437356749675,
        "Mean Anomaly(deg)": 197.33481824399837,
        "RAAN(deg)": 94.99909457335089,
        "Satellite Name": "Constellation 1 430",
        "Satellite Number": 430,
        "Semi-Major Axis(m)": 7083131.272910544,
        "Time(s)": 16
    },
    {
        "Altitude(m)": 705860.579878586,
        "Argument of Periapsis(deg)": 0.0010191161061718953,
        "Eccentricity": 0.0,
        "Inclination(deg)": 45.0,
        "Latitude(deg)": -12.330697230914438,
        "Longitude(deg)": -172.48362382268448,
        "Mean Anomaly(deg)": 197.3955193842483,
        "RAAN(deg)": 94.9990379841853,
        "Satellite Name": "Constellation 1 430",
        "Satellite Number": 430,
        "Semi-Major Axis(m)": 7083131.272910544,
        "Time(s)": 17
    },
    {
        "Altitude(m)": 705871.5048708032,
        "Argument of Periapsis(deg)": 0.001079064112417301,
        "Eccentricity": 0.0,
        "Inclination(deg)": 45.0,
        "Latitude(deg)": -12.372832298909733,
        "Longitude(deg)": -172.4428598512586,
        "Mean Anomaly(deg)": 197.45622052449815,
        "RAAN(deg)": 94.99898139501975,
        "Satellite Name": "Constellation 1 430",
        "Satellite Number": 430,
        "Semi-Major Axis(m)": 7083131.272910544,
        "Time(s)": 18
    }
]